NORAD_CAT_ID,OBJECT_NAME,OBJECT_TYPE,EPOCH,MEAN_MOTION,ECCENTRICITY,INCLINATION,RA_OF_ASC_NODE,ARG_OF_PERICENTER,MEAN_ANOMALY,BSTAR,MEAN_MOTION_DOT,MEAN_MOTION_DDOT,TLE_LINE0,TLE_LINE1,TLE_LINE2,SEMIMAJOR_AXIS,PERIOD,APOGEE,PERIGEE,DECAYED
53773.0,STARLINK-4718,PAYLOAD,2023-02-07 22:02:10,15.08900128,0.0001304,53.2163,297.8275,90.3066,269.8075,0.0018842,0.00029876,0.0,0 STARLINK-4718,1 53773U 22111A   23038.91817789  .00029876  00000-0  18842-2 0  9995,2 53773  53.2163 297.8275 0001304  90.3066 269.8075 15.08900128 23892,6917.697,95.434,540.464,538.66,0.0
53773.0,STARLINK-4718,PAYLOAD,2023-02-07 23:37:34,15.08838437,0.0001723,53.2166,297.5302,93.3839,266.735,-0.0012052,-0.00019417,0.0,0 STARLINK-4718,1 53773U 22111A   23038.98442359 -.00019417  00000-0 -12052-2 0  9998,2 53773  53.2166 297.5302 0001723  93.3839 266.7350 15.08838437 22804,6917.885,95.438,540.942,538.558,0.0
53773.0,STARLINK-4718,PAYLOAD,2023-02-08 21:52:59,15.0883176,0.0001378,53.2157,293.3676,67.9396,292.1742,0.0017198,0.00027182,0.0,0 STARLINK-4718,1 53773U 22111A   23039.91180092  .00027182  00000-0  17198-2 0  9997,2 53773  53.2157 293.3676 0001378  67.9396 292.1742 15.08831760 24041,6917.906,95.438,540.724,538.817,0.0
53773.0,STARLINK-4718,PAYLOAD,2023-02-09 02:39:09,15.08837737,0.0001414,53.2169,292.4733,77.9418,282.1732,0.0014859,0.00023438,0.0,0 STARLINK-4718,1 53773U 22111A   23040.11052085  .00023438  00000-0  14859-2 0  9992,2 53773  53.2169 292.4733 0001414  77.9418 282.1732 15.08837737 22973,6917.887,95.438,540.73,538.774,0.0
53773.0,STARLINK-4718,PAYLOAD,2023-02-09 20:08:23,15.08842857,0.0001246,53.2164,289.2012,76.3681,283.745,0.0010367,0.00016251,0.0,0 STARLINK-4718,1 53773U 22111A   23040.83916534  .00016251  00000-0  10367-2 0  9994,2 53773  53.2164 289.2012 0001246  76.3681 283.7450 15.08842857 23086,6917.872,95.437,540.599,538.875,0.0
53773.0,STARLINK-4718,PAYLOAD,2023-02-10 02:29:56,15.08862388,0.0001228,53.2174,288.0136,86.6335,273.4798,0.0018686,0.00029594,0.0,0 STARLINK-4718,1 53773U 22111A   23041.10412232  .00029594  00000-0  18686-2 0  9997,2 53773  53.2174 288.0136 0001228  86.6335 273.4798 15.08862388 24220,6917.812,95.436,540.526,538.827,0.0
53773.0,STARLINK-4718,PAYLOAD,2023-02-10 23:09:56,15.08863617,0.0002107,53.2163,284.1469,81.0116,279.1115,0.001287,0.00020267,0.0,0 STARLINK-4718,1 53773U 22111A   23041.96524177  .00020267  00000-0  12870-2 0  9990,2 53773  53.2163 284.1469 0002107  81.0116 279.1115 15.08863617 23251,6917.808,95.436,541.131,538.216,0.0
53773.0,STARLINK-4718,PAYLOAD,2023-02-11 23:00:44,15.08852262,0.0001404,53.2167,279.6873,65.0074,295.1064,0.0012104,0.00019034,0.0,0 STARLINK-4718,1 53773U 22111A   23042.95884530  .00019034  00000-0  12104-2 0  9992,2 53773  53.2167 279.6873 0001404  65.0074 295.1064 15.08852262 23409,6917.843,95.437,540.679,538.737,0.0
53773.0,STARLINK-4718,PAYLOAD,2023-02-12 08:33:03,15.08831601,0.0001187,53.2163,277.9032,76.2862,283.8262,0.00092429,0.00014449,0.0,0 STARLINK-4718,1 53773U 22111A   23043.35628934  .00014449  00000-0  92429-3 0  9995,2 53773  53.2163 277.9032 0001187  76.2862 283.8262 15.08831601 23464,6917.906,95.438,540.592,538.95,0.0
53773.0,STARLINK-4718,PAYLOAD,2023-02-13 02:02:18,15.08838359,0.000107,53.2161,274.6317,75.5115,284.5996,0.00087732,0.00013702,0.0,0 STARLINK-4718,1 53773U 22111A   23044.08493181  .00013702  00000-0  87732-3 0  9992,2 53773  53.2161 274.6317 0001070  75.5115 284.5996 15.08838359 23577,6917.885,95.438,540.491,539.01,0.0
53773.0,STARLINK-4718,PAYLOAD,2023-02-14 00:17:42,15.08844403,0.0001069,53.2154,270.468,75.6579,284.4532,0.00048699,7.472e-05,0.0,0 STARLINK-4718,1 53773U 22111A   23045.01229329  .00007472  00000-0  48699-3 0  9993,2 53773  53.2154 270.4680 0001069  75.6579 284.4532 15.08844403 23717,6917.867,95.437,540.471,538.992,0.0
53773.0,STARLINK-4718,PAYLOAD,2023-02-14 14:36:10,15.08840224,0.0001239,53.214,267.7922,76.3689,283.7441,0.00023545,3.461e-05,0.0,0 STARLINK-4718,1 53773U 22111A   23045.60845626  .00003461  00000-0  23545-3 0  9999,2 53773  53.2140 267.7922 0001239  76.3689 283.7441 15.08840224 24909,6917.88,95.438,540.602,538.888,0.0
53773.0,STARLINK-4718,PAYLOAD,2023-02-15 14:26:57,15.08853693,0.0001425,53.2122,263.3314,83.8524,276.263,6.2012e-05,6.99e-06,0.0,0 STARLINK-4718,1 53773U 22111A   23046.60204919  .00000699  00000-0  62012-4 0  9997,2 53773  53.2122 263.3314 0001425  83.8524 276.2630 15.08853693 25052,6917.839,95.437,540.689,538.718,0.0
53773.0,STARLINK-4718,PAYLOAD,2023-02-15 20:48:29,15.08860238,8.85e-05,53.2143,262.1425,75.7796,284.3294,0.00027617,4.113e-05,0.0,0 STARLINK-4718,1 53773U 22111A   23046.86700685  .00004113  00000-0  27617-3 0  9992,2 53773  53.2143 262.1425 0000885  75.7796 284.3294 15.08860238 25098,6917.819,95.436,540.296,539.071,0.0
53773.0,STARLINK-4718,PAYLOAD,2023-02-15 23:59:15,15.0886232,0.0001027,53.2137,261.5471,78.4877,281.623,0.0005369,8.272e-05,0.0,0 STARLINK-4718,1 53773U 22111A   23046.99948666  .00008272  00000-0  53690-3 0  9999,2 53773  53.2137 261.5471 0001027  78.4877 281.6230 15.08862320 24019,6917.812,95.436,540.388,538.967,0.0
53773.0,STARLINK-4718,PAYLOAD,2023-02-16 14:17:44,15.08845948,6.64e-05,53.2146,258.872,66.3054,293.8008,0.00015216,2.135e-05,0.0,0 STARLINK-4718,1 53773U 22111A   23047.59564983  .00002135  00000-0  15216-3 0  9996,2 53773  53.2146 258.8720 0000664  66.3054 293.8008 15.08845948 24109,6917.862,95.437,540.187,539.268,0.0
53773.0,STARLINK-4718,PAYLOAD,2023-02-16 22:14:39,15.08848755,6.63e-05,53.2157,257.3852,82.8355,277.2712,0.00019889,2.88e-05,0.0,0 STARLINK-4718,1 53773U 22111A   23047.92684729  .00002880  00000-0  19889-3 0  9991,2 53773  53.2157 257.3852 0000663  82.8355 277.2712 15.08848755 25251,6917.854,95.437,540.177,539.26,0.0
53773.0,STARLINK-4718,PAYLOAD,2023-02-17 14:08:31,15.08836523,0.0001192,53.2138,254.41,88.0851,272.0277,8.9956e-05,1.144e-05,0.0,0 STARLINK-4718,1 53773U 22111A   23048.58925130  .00001144  00000-0  89956-4 0  9993,2 53773  53.2138 254.4100 0001192  88.0851 272.0277 15.08836523 24259,6917.891,95.438,540.581,538.931,0.0
53773.0,STARLINK-4718,PAYLOAD,2023-02-17 20:30:04,15.08830674,0.0001117,53.2142,253.2206,89.464,270.648,0.00019032,2.742e-05,0.0,0 STARLINK-4718,1 53773U 22111A   23048.85421359  .00002742  00000-0  19032-3 0  9999,2 53773  53.2142 253.2206 0001117  89.4640 270.6480 15.08830674 25393,6917.909,95.438,540.547,539.001,0.0
53773.0,STARLINK-4718,PAYLOAD,2023-02-18 12:23:55,15.08837813,9.77e-05,53.2149,250.2482,92.8351,267.2753,0.00013556,1.87e-05,0.0,0 STARLINK-4718,1 53773U 22111A   23049.51661493  .00001870  00000-0  13556-3 0  9994,2 53773  53.2149 250.2482 0000977  92.8351 267.2753 15.08837813 25491,6917.887,95.438,540.428,539.076,0.0
53773.0,STARLINK-4718,PAYLOAD,2023-02-18 20:20:51,15.08844286,0.0001029,53.2151,248.762,93.7601,266.3509,0.00024035,3.54e-05,0.0,0 STARLINK-4718,1 53773U 22111A   23049.84781268  .00003540  00000-0  24035-3 0  9993,2 53773  53.2151 248.7620 0001029  93.7601 266.3509 15.08844286 24442,6917.867,95.437,540.444,539.02,0.0
53773.0,STARLINK-4718,PAYLOAD,2023-02-19 13:50:05,15.08836074,0.0001163,53.2162,245.4913,96.2746,263.8378,5.0175e-05,5.11e-06,0.0,0 STARLINK-4718,1 53773U 22111A   23050.57645623  .00000511  00000-0  50175-4 0  9999,2 53773  53.2162 245.4913 0001163  96.2746 263.8378 15.08836074 24554,6917.892,95.438,540.562,538.953,0.0
53773.0,STARLINK-4718,PAYLOAD,2023-02-20 13:40:52,15.08840469,0.0001159,53.2162,241.0301,90.5011,269.6114,5.5617e-05,5.97e-06,0.0,0 STARLINK-4718,1 53773U 22111A   23051.57005615  .00000597  00000-0  55617-4 0  9991,2 53773  53.2162 241.0301 0001159  90.5011 269.6114 15.08840469 25808,6917.879,95.438,540.546,538.942,0.0
53773.0,STARLINK-4718,PAYLOAD,2023-02-20 21:37:48,15.08846022,0.0001193,53.2161,239.5432,84.7964,275.3165,0.00010425,1.372e-05,0.0,0 STARLINK-4718,1 53773U 22111A   23051.90125315  .00001372  00000-0  10425-3 0  9997,2 53773  53.2161 239.5432 0001193  84.7964 275.3165 15.08846022 24758,6917.862,95.437,540.552,538.902,0.0
53773.0,STARLINK-4718,PAYLOAD,2023-02-21 11:56:16,15.08840633,0.0001181,53.2156,236.8663,82.4935,277.6191,0.00014656,2.045e-05,0.0,0 STARLINK-4718,1 53773U 22111A   23052.49741638  .00002045  00000-0  14656-3 0  9992,2 53773  53.2156 236.8663 0001181  82.4935 277.6191 15.08840633 24844,6917.878,95.438,540.56,538.926,0.0
53773.0,STARLINK-4718,PAYLOAD,2023-02-21 21:28:35,15.08848015,0.0001156,53.2157,235.0823,81.5489,278.5635,0.00031194,4.681e-05,0.0,0 STARLINK-4718,1 53773U 22111A   23052.89485310  .00004681  00000-0  31194-3 0  9992,2 53773  53.2157 235.0823 0001156  81.5489 278.5635 15.08848015 26005,6917.856,95.437,540.521,538.921,0.0
53773.0,STARLINK-4718,PAYLOAD,2023-02-21 23:03:58,15.08851709,0.0001174,53.216,234.785,82.2128,277.8997,0.00025587,3.788e-05,0.0,0 STARLINK-4718,1 53773U 22111A   23052.96109080  .00003788  00000-0  25587-3 0  9993,2 53773  53.2160 234.7850 0001174  82.2128 277.8997 15.08851709 24918,6917.845,95.437,540.522,538.897,0.0
53773.0,STARLINK-4718,PAYLOAD,2023-02-22 11:47:03,15.0884154,0.0001221,53.2159,232.406,86.1036,274.0096,9.4901e-05,1.223e-05,0.0,0 STARLINK-4718,1 53773U 22111A   23053.49101566  .00001223  00000-0  94901-4 0  9992,2 53773  53.2159 232.4060 0001221  86.1036 274.0096 15.08841540 24997,6917.876,95.437,540.585,538.896,0.0
53773.0,STARLINK-4718,PAYLOAD,2023-02-22 21:19:22,15.08847154,0.0001124,53.216,230.6219,84.5765,275.5355,0.00012443,1.693e-05,0.0,0 STARLINK-4718,1 53773U 22111A   23053.88845198  .00001693  00000-0  12443-3 0  9992,2 53773  53.2160 230.6219 0001124  84.5765 275.5355 15.08847154 26159,6917.859,95.437,540.501,538.946,0.0
53773.0,STARLINK-4718,PAYLOAD,2023-02-23 11:37:50,15.0884159,0.0001085,53.2158,227.9457,86.5816,273.53,5.7918e-05,6.34e-06,0.0,0 STARLINK-4718,1 53773U 22111A   23054.48461456  .00000634  00000-0  57918-4 0  9991,2 53773  53.2158 227.9457 0001085  86.5816 273.5300 15.08841590 26240,6917.876,95.437,540.491,538.99,0.0
